STARLINK-2438_new
1 18103C 21027M   21326.16874883 -.00017041  00000-0 -11420-2 0  3266
2 18103  53.0507 352.9826 0001691  52.4835 242.9877 15.06407987    14
STARLINK-2438_old
1 28103C 21027M   21325.14097669 -.00000406  00000-0 -27221-4 0  3256
2 28103  53.0510 357.5970 0001755  53.5871  65.1258 15.06404596    13
